OBJECT_NAME,OBJECT_ID,EPOCH,MEAN_MOTION,ECCENTRICITY,INCLINATION,RA_OF_ASC_NODE,ARG_OF_PERICENTER,MEAN_ANOMALY,EPHEMERIS_TYPE,CLASSIFICATION_TYPE,NORAD_CAT_ID,ELEMENT_SET_NO,REV_AT_EPOCH,BSTAR,MEAN_MOTION_DOT,MEAN_MOTION_DDOT
STARLINK-5640,2023-014AX,2024-02-12T20:58:46.645536,14.98334439,.0003105,70.0001,210.1824,270.2054,89.8749,0,U,55436,999,5785,.16537E-3,.1881E-4,0
STARLINK-5080,2023-014AY,2024-02-12T20:23:46.497408,15.14882981,.0005416,69.9953,201.6759,274.7313,85.3236,0,U,55437,999,5712,.30274E-2,.5682E-3,0
STARLINK-5074,2023-014AZ,2024-02-12T15:45:38.823840,14.98336433,.0002502,70.0018,170.5140,257.1331,102.9549,0,U,55438,999,5881,-.57177E-4,-.775E-5,0
STARLINK-5634,2023-014BA,2024-02-12T21:04:47.386272,14.98334585,.000245,70.0003,210.1984,272.0220,88.0659,0,U,55439,999,5785,.55736E-4,.572E-5,0
ION SCV-009,2023-014BC,2024-02-12T21:32:12.253920,16.30024880,.000652,69.9851,108.3090,307.2638,180.1739,0,U,55441,999,5954,.53331E-3,.2392498E-1,.42829E-5
STARLINK-5699,2023-015A,2024-02-12T14:26:37.775040,15.02549480,.0001099,43.0031,114.8036,267.0074,93.0643,0,U,55449,999,5795,.1801E-3,.2231E-4,0
STARLINK-5686,2023-015B,2024-02-12T12:55:42.320928,15.02553974,.000129,43.0018,115.1894,257.5880,102.4818,0,U,55450,999,5682,.44654E-3,.5836E-4,0
STARLINK-5656,2023-015C,2024-02-12T15:57:33.875424,15.02559371,.0001101,43.0016,114.4182,288.4901,71.5822,0,U,55451,999,5702,.49933E-3,.6552E-4,0
STARLINK-5683,2023-015D,2024-02-12T15:49:34.628448,15.02555956,.0001125,43.0019,114.3749,263.9439,96.1276,0,U,55452,999,5702,.46318E-3,.6062E-4,0
STARLINK-5684,2023-015E,2024-02-12T15:44:46.508640,15.02557901,.0001296,43.0022,114.3476,237.8236,122.2480,0,U,55453,999,5702,.37501E-3,.4869E-4,0
STARLINK-5636,2023-015F,2024-02-13T04:22:38.173728,15.02529379,.0001091,43.0032,111.4081,254.6669,105.4053,0,U,55454,999,5710,-.58628E-4,-.995E-5,0
STARLINK-5680,2023-015G,2024-02-12T15:54:21.736512,15.02552078,.0001113,43.0029,114.3984,240.6177,119.4555,0,U,55455,999,5702,.21104E-3,.2649E-4,0
STARLINK-5058,2023-015H,2024-02-13T04:24:13.689792,15.02529011,.0001199,43.0014,111.4269,271.5393,88.5312,0,U,55456,999,5692,-.17118E-3,-.2515E-4,0
STARLINK-5682,2023-015J,2024-02-12T15:41:35.179296,15.02551029,.0001199,43.0025,114.3338,272.7766,87.2939,0,U,55457,999,5702,.31027E-3,.3992E-4,0
STARLINK-5020,2023-015K,2024-02-13T04:06:39.526848,15.02525507,.000093,43.0029,111.3330,282.1893,77.8846,0,U,55458,999,5710,-.46361E-4,-.83E-5,0
STARLINK-5669,2023-015L,2024-02-13T04:14:38.506848,15.02527756,.0001374,43.0040,111.3807,310.0627,50.0094,0,U,55459,999,5710,-.1682E-3,-.2474E-4,0
STARLINK-5678,2023-015M,2024-02-13T04:09:51.317568,15.02524576,.0001442,43.0039,111.3489,254.4380,105.6303,0,U,55460,999,5710,-.10454E-3,-.1615E-4,0
STARLINK-5646,2023-015N,2024-02-13T04:19:26.616288,15.02534724,.0000944,43.0021,111.4017,288.9903,71.0837,0,U,55461,999,5710,-.11287E-3,-.1728E-4,0
STARLINK-5673,2023-015P,2024-02-13T03:53:51.236448,15.02541644,.0001279,42.9968,111.2601,110.1649,249.9331,0,U,55462,999,5710,.13774E-3,.1658E-4,0
STARLINK-5677,2023-015Q,2024-02-13T04:01:51.661056,15.02525558,.0002031,43.0042,111.3040,237.3595,122.7052,0,U,55463,999,5710,-.14558E-3,-.2169E-4,0
STARLINK-5676,2023-015R,2024-02-13T03:41:04.302528,15.02528358,.000057,43.0006,111.1996,289.7736,70.3045,0,U,55464,999,5710,-.36447E-3,-.5122E-4,0
STARLINK-5674,2023-015S,2024-02-13T03:49:03.698112,15.02536600,.0002187,42.9962,111.2331,150.7201,209.3764,0,U,55465,999,5692,.71766E-4,.766E-5,0
STARLINK-5628,2023-015T,2024-02-12T16:18:10.484064,15.02556505,.000108,43.0011,113.6596,266.5907,93.4812,0,U,55466,999,5703,.49146E-3,.6445E-4,0
STARLINK-5679,2023-015U,2024-02-13T03:58:39.455616,15.02522058,.0001738,43.0035,111.2889,241.3845,118.6822,0,U,55467,999,5710,-.29965E-3,-.4248E-4,0
STARLINK-5672,2023-015V,2024-02-12T16:27:45.036288,15.02557062,.0001463,43.0025,113.7066,236.3278,123.7425,0,U,55468,999,5703,.22893E-3,.2892E-4,0
STARLINK-5681,2023-015W,2024-02-13T03:45:52.427520,15.02530335,.0000328,42.9996,111.2223,83.6399,276.4481,0,U,55469,999,5710,-.65292E-4,-.1085E-4,0
STARLINK-5708,2023-015X,2024-02-13T03:34:41.292192,15.02525930,.0001214,43.0020,111.1694,339.0721,21.0072,0,U,55470,999,5710,-.14379E-3,-.2145E-4,0
STARLINK-5711,2023-015Y,2024-02-12T16:22:58.235808,15.02560342,.000137,43.0017,113.6844,268.5295,91.5390,0,U,55471,999,5703,.73757E-3,.978E-4,0
STARLINK-5705,2023-015Z,2024-02-13T03:30:26.561664,15.02522231,.0001546,43.0078,99.0023,272.8777,87.1888,0,U,55472,999,5724,-.13488E-3,-.2025E-4,0
