STARLINK-5640           
1 55436U 23014AX  24043.87415099  .00001881  00000+0  16537-3 0  9991
2 55436  70.0001 210.1824 0003105 270.2054  89.8749 14.98334439 57858
STARLINK-5080           
1 55437U 23014AY  24043.84984372  .00056820  00000+0  30274-2 0  9990
2 55437  69.9953 201.6759 0005416 274.7313  85.3236 15.14882981 57129
STARLINK-5074           
1 55438U 23014AZ  24043.65669935 -.00000775  00000+0 -57177-4 0  9998
2 55438  70.0018 170.5140 0002502 257.1331 102.9549 14.98336433 58818
STARLINK-5634           
1 55439U 23014BA  24043.87832623  .00000572  00000+0  55736-4 0  9991
2 55439  70.0003 210.1984 0002450 272.0220  88.0659 14.98334585 57850
ION SCV-009             
1 55441U 23014BC  24043.89736405  .02392498  42829-5  53331-3 0  9999
2 55441  69.9851 108.3090 0006520 307.2638 180.1739 16.30024880 59546
STARLINK-5699           
1 55449U 23015A   24043.60182610  .00002231  00000+0  18010-3 0  9995
2 55449  43.0031 114.8036 0001099 267.0074  93.0643 15.02549480 57957
STARLINK-5686           
1 55450U 23015B   24043.53868427  .00005836  00000+0  44654-3 0  9993
2 55450  43.0018 115.1894 0001290 257.5880 102.4818 15.02553974 56829
STARLINK-5656           
1 55451U 23015C   24043.66497541  .00006552  00000+0  49933-3 0  9994
2 55451  43.0016 114.4182 0001101 288.4901  71.5822 15.02559371 57029
STARLINK-5683           
1 55452U 23015D   24043.65942857  .00006062  00000+0  46318-3 0  9999
2 55452  43.0019 114.3749 0001125 263.9439  96.1276 15.02555956 57022
STARLINK-5684           
1 55453U 23015E   24043.65609385  .00004869  00000+0  37501-3 0  9993
2 55453  43.0022 114.3476 0001296 237.8236 122.2480 15.02557901 57028
STARLINK-5636           
1 55454U 23015F   24044.18238627 -.00000995  00000+0 -58628-4 0  9992
2 55454  43.0032 111.4081 0001091 254.6669 105.4053 15.02529379 57106
STARLINK-5680           
1 55455U 23015G   24043.66275158  .00002649  00000+0  21104-3 0  9999
2 55455  43.0029 114.3984 0001113 240.6177 119.4555 15.02552078 57026
STARLINK-5058           
1 55456U 23015H   24044.18349178 -.00002515  00000+0 -17118-3 0  9996
2 55456  43.0014 111.4269 0001199 271.5393  88.5312 15.02529011 56928
STARLINK-5682           
1 55457U 23015J   24043.65387939  .00003992  00000+0  31027-3 0  9998
2 55457  43.0025 114.3338 0001199 272.7766  87.2939 15.02551029 57024
STARLINK-5020           
1 55458U 23015K   24044.17129082 -.00000830  00000+0 -46361-4 0  9998
2 55458  43.0029 111.3330 0000930 282.1893  77.8846 15.02525507 57109
STARLINK-5669           
1 55459U 23015L   24044.17683457 -.00002474  00000+0 -16820-3 0  9992
2 55459  43.0040 111.3807 0001374 310.0627  50.0094 15.02527756 57107
STARLINK-5678           
1 55460U 23015M   24044.17351062 -.00001615  00000+0 -10454-3 0  9991
2 55460  43.0039 111.3489 0001442 254.4380 105.6303 15.02524576 57103
STARLINK-5646           
1 55461U 23015N   24044.18016917 -.00001728  00000+0 -11287-3 0  9990
2 55461  43.0021 111.4017 0000944 288.9903  71.0837 15.02534724 57106
STARLINK-5673           
1 55462U 23015P   24044.16239857  .00001658  00000+0  13774-3 0  9992
2 55462  42.9968 111.2601 0001279 110.1649 249.9331 15.02541644 57101
STARLINK-5677           
1 55463U 23015Q   24044.16795904 -.00002169  00000+0 -14558-3 0  9994
2 55463  43.0042 111.3040 0002031 237.3595 122.7052 15.02525558 57108
STARLINK-5676           
1 55464U 23015R   24044.15352202 -.00005122  00000+0 -36447-3 0  9997
2 55464  43.0006 111.1996 0000570 289.7736  70.3045 15.02528358 57102
STARLINK-5674           
1 55465U 23015S   24044.15907058  .00000766  00000+0  71766-4 0  9994
2 55465  42.9962 111.2331 0002187 150.7201 209.3764 15.02536600 56926
STARLINK-5628           
1 55466U 23015T   24043.67928801  .00006445  00000+0  49146-3 0  9996
2 55466  43.0011 113.6596 0001080 266.5907  93.4812 15.02556505 57038
STARLINK-5679           
1 55467U 23015U   24044.16573444 -.00004248  00000+0 -29965-3 0  9999
2 55467  43.0035 111.2889 0001738 241.3845 118.6822 15.02522058 57101
STARLINK-5672           
1 55468U 23015V   24043.68593792  .00002892  00000+0  22893-3 0  9998
2 55468  43.0025 113.7066 0001463 236.3278 123.7425 15.02557062 57035
STARLINK-5681           
1 55469U 23015W   24044.15685680 -.00001085  00000+0 -65292-4 0  9996
2 55469  42.9996 111.2223 0000328  83.6399 276.4481 15.02530335 57105
STARLINK-5708           
1 55470U 23015X   24044.14908903 -.00002145  00000+0 -14379-3 0  9990
2 55470  43.0020 111.1694 0001214 339.0721  21.0072 15.02525930 57105
STARLINK-5711           
1 55471U 23015Y   24043.68261847  .00009780  00000+0  73757-3 0  9993
2 55471  43.0017 113.6844 0001370 268.5295  91.5390 15.02560342 57034
STARLINK-5705           
1 55472U 23015Z   24044.14614076 -.00002025  00000+0 -13488-3 0  9994
2 55472  43.0078  99.0023 0001546 272.8777  87.1888 15.02522231 57247
